IRIDIUM 155             
1 43573U 18061E   21061.52312912  .00000098  00000-0  28069-4 0  9999
2 43573  86.4001 144.4330 0002209 110.5875 249.5558 14.34216492136354
IRIDIUM 154             
1 43574U 18061F   21061.50409393  .00000080  00000-0  21650-4 0  9998
2 43574  86.4004 144.4825 0002079  90.3734 269.7699 14.34215521136397
IRIDIUM 163             
1 43575U 18061G   21061.48507430  .00000103  00000-0  29623-4 0  9991
2 43575  86.4002 144.4646 0002704  91.6133 268.5372 14.34216107136362
IRIDIUM 156             
1 43576U 18061H   21061.45969463  .00000102  00000-0  29207-4 0  9994
2 43576  86.4002 144.4801 0002558 101.4251 258.7232 14.34220809136342
IRIDIUM 164             
1 43577U 18061J   21061.51043874  .00000099  00000-0  28252-4 0  9995
2 43577  86.4004 144.4699 0002246  90.8204 269.3249 14.34220752136403
IRIDIUM 159             
1 43578U 18061K   21061.47873503  .00000101  00000-0  29156-4 0  9999
2 43578  86.4000 144.4605 0002168  92.1883 267.9561 14.34218826136363
IRIDIUM 180             
1 43922U 19002A   21062.10614646  .00000064  00000-0  15781-4 0  9997
2 43922  86.3922  81.0280 0002493  65.9682 294.1775 14.34219126112108
IRIDIUM 176             
1 43923U 19002B   21062.44879392  .00000098  00000-0  11651-4 0  9995
2 43923  86.6057  80.9162 0002266  87.7066 272.4410 14.72256129115030
IRIDIUM 168             
1 43924U 19002C   21061.68118174  .00000057  00000-0  13444-4 0  9992
2 43924  86.3924  81.2285 0002132  83.9581 276.1858 14.34220509111981
IRIDIUM 173             
1 43925U 19002D   21062.08711391  .00000053  00000-0  12015-4 0  9997
2 43925  86.3921  81.0260 0002205  85.5219 274.6229 14.34215451112039
IRIDIUM 169             
1 43926U 19002E   21061.43651354  .00000085  00000-0  21331-4 0  9994
2 43926  86.4202 112.9171 0003991 197.8637 162.2422 14.38606592112358
IRIDIUM 172             
1 43927U 19002F   21062.42962325  .00000067  00000-0  16859-4 0  9997
2 43927  86.3920  80.8846 0002207  83.3575 276.7872 14.34218335112086
IRIDIUM 175             
1 43928U 19002G   21062.44261663  .00000082  00000-0  91002-5 0  9998
2 43928  86.6041  80.7595 0003055  89.8965 270.2602 14.72248940115024
IRIDIUM 171             
1 43929U 19002H   21062.48034952  .00000066  00000-0  16592-4 0  9994
2 43929  86.3930  80.9551 0002090  84.4818 275.6616 14.34215934112081
IRIDIUM 170             
1 43930U 19002J   21062.45499762  .00000096  00000-0  11305-4 0  9997
2 43930  86.6056  80.9203 0002587  87.0103 273.1410 14.72256150115047
IRIDIUM 167             
1 43931U 19002K   21062.47401186  .00000067  00000-0  16809-4 0  9995
2 43931  86.3921  80.8714 0002285  69.9281 290.2160 14.34216840112086
